CCSDS_OMM_VERS = 2.0
CREATION_DATE  = 
ORIGINATOR     = 

OBJECT_NAME    = ISS (ZARYA)
OBJECT_ID      = 1998-067A
CENTER_NAME    = EARTH
REF_FRAME      = TEME
TIME_SYSTEM    = UTC
MEAN_ELEMENT_THEORY = SGP/SGP4

EPOCH          = 2025-11-30T20:47:58.000128
MEAN_MOTION    = 15.49213294
ECCENTRICITY   = .00036702
INCLINATION    = 51.6312
RA_OF_ASC_NODE = 201.2569
ARG_OF_PERICENTER = 188.2523
MEAN_ANOMALY   = 171.8406

EPHEMERIS_TYPE = 0
CLASSIFICATION_TYPE = U
NORAD_CAT_ID   = 25544
ELEMENT_SET_NO = 999
REV_AT_EPOCH   = 54101
BSTAR          = .16017013E-3
MEAN_MOTION_DOT = .845E-4
MEAN_MOTION_DDOT = 0

CCSDS_OMM_VERS = 2.0
CREATION_DATE  = 
ORIGINATOR     = 

OBJECT_NAME    = CSS (TIANHE)
OBJECT_ID      = 2021-035A
CENTER_NAME    = EARTH
REF_FRAME      = TEME
TIME_SYSTEM    = UTC
MEAN_ELEMENT_THEORY = SGP/SGP4

EPOCH          = 2025-11-30T17:36:42.819552
MEAN_MOTION    = 15.58437522
ECCENTRICITY   = .00104909
INCLINATION    = 41.4667
RA_OF_ASC_NODE = 89.5523
ARG_OF_PERICENTER = 301.4921
MEAN_ANOMALY   = 58.4891

EPHEMERIS_TYPE = 0
CLASSIFICATION_TYPE = U
NORAD_CAT_ID   = 48274
ELEMENT_SET_NO = 999
REV_AT_EPOCH   = 26215
BSTAR          = .20844927E-3
MEAN_MOTION_DOT = .16075E-3
MEAN_MOTION_DDOT = 0

CCSDS_OMM_VERS = 2.0
CREATION_DATE  = 
ORIGINATOR     = 

OBJECT_NAME    = ISS (NAUKA)
OBJECT_ID      = 2021-066A
CENTER_NAME    = EARTH
REF_FRAME      = TEME
TIME_SYSTEM    = UTC
MEAN_ELEMENT_THEORY = SGP/SGP4

EPOCH          = 2025-11-30T20:47:58.000128
MEAN_MOTION    = 15.49213294
ECCENTRICITY   = .00036702
INCLINATION    = 51.6312
RA_OF_ASC_NODE = 201.2569
ARG_OF_PERICENTER = 188.2523
MEAN_ANOMALY   = 171.8406

EPHEMERIS_TYPE = 0
CLASSIFICATION_TYPE = U
NORAD_CAT_ID   = 49044
ELEMENT_SET_NO = 999
REV_AT_EPOCH   = 23044
BSTAR          = .16017013E-3
MEAN_MOTION_DOT = .845E-4
MEAN_MOTION_DDOT = 0

CCSDS_OMM_VERS = 2.0
CREATION_DATE  = 
ORIGINATOR     = 

OBJECT_NAME    = FREGAT DEB
OBJECT_ID      = 2011-037PF
CENTER_NAME    = EARTH
REF_FRAME      = TEME
TIME_SYSTEM    = UTC
MEAN_ELEMENT_THEORY = SGP/SGP4

EPOCH          = 2025-11-30T02:27:10.897344
MEAN_MOTION    = 12.34314267
ECCENTRICITY   = .08699853
INCLINATION    = 51.6202
RA_OF_ASC_NODE = 236.7991
ARG_OF_PERICENTER = 196.4494
MEAN_ANOMALY   = 160.6386

EPHEMERIS_TYPE = 0
CLASSIFICATION_TYPE = U
NORAD_CAT_ID   = 49271
ELEMENT_SET_NO = 999
REV_AT_EPOCH   = 20037
BSTAR          = .14225513E-1
MEAN_MOTION_DOT = .6404E-4
MEAN_MOTION_DDOT = 0

CCSDS_OMM_VERS = 2.0
CREATION_DATE  = 
ORIGINATOR     = 

OBJECT_NAME    = CSS (WENTIAN)
OBJECT_ID      = 2022-085A
CENTER_NAME    = EARTH
REF_FRAME      = TEME
TIME_SYSTEM    = UTC
MEAN_ELEMENT_THEORY = SGP/SGP4

EPOCH          = 2025-11-30T17:36:42.819552
MEAN_MOTION    = 15.58437522
ECCENTRICITY   = .00104909
INCLINATION    = 41.4667
RA_OF_ASC_NODE = 89.5523
ARG_OF_PERICENTER = 301.4921
MEAN_ANOMALY   = 58.4891

EPHEMERIS_TYPE = 0
CLASSIFICATION_TYPE = U
NORAD_CAT_ID   = 53239
ELEMENT_SET_NO = 999
REV_AT_EPOCH   = 17384
BSTAR          = .20844927E-3
MEAN_MOTION_DOT = .16075E-3
MEAN_MOTION_DDOT = 0

CCSDS_OMM_VERS = 2.0
CREATION_DATE  = 
ORIGINATOR     = 

OBJECT_NAME    = CSS (MENGTIAN)
OBJECT_ID      = 2022-143A
CENTER_NAME    = EARTH
REF_FRAME      = TEME
TIME_SYSTEM    = UTC
MEAN_ELEMENT_THEORY = SGP/SGP4

EPOCH          = 2025-11-30T17:36:42.819552
MEAN_MOTION    = 15.58437522
ECCENTRICITY   = .00104909
INCLINATION    = 41.4667
RA_OF_ASC_NODE = 89.5523
ARG_OF_PERICENTER = 301.4921
MEAN_ANOMALY   = 58.4891

EPHEMERIS_TYPE = 0
CLASSIFICATION_TYPE = U
NORAD_CAT_ID   = 54216
ELEMENT_SET_NO = 999
REV_AT_EPOCH   = 15864
BSTAR          = .20844927E-3
MEAN_MOTION_DOT = .16075E-3
MEAN_MOTION_DDOT = 0

CCSDS_OMM_VERS = 2.0
CREATION_DATE  = 
ORIGINATOR     = 

OBJECT_NAME    = SOYUZ-MS 27
OBJECT_ID      = 2025-072A
CENTER_NAME    = EARTH
REF_FRAME      = TEME
TIME_SYSTEM    = UTC
MEAN_ELEMENT_THEORY = SGP/SGP4

EPOCH          = 2025-11-30T20:47:58.000128
MEAN_MOTION    = 15.49213294
ECCENTRICITY   = .00036702
INCLINATION    = 51.6312
RA_OF_ASC_NODE = 201.2569
ARG_OF_PERICENTER = 188.2523
MEAN_ANOMALY   = 171.8406

EPHEMERIS_TYPE = 0
CLASSIFICATION_TYPE = U
NORAD_CAT_ID   = 63520
ELEMENT_SET_NO = 999
REV_AT_EPOCH   = 2020
BSTAR          = .16017013E-3
MEAN_MOTION_DOT = .845E-4
MEAN_MOTION_DDOT = 0

CCSDS_OMM_VERS = 2.0
CREATION_DATE  = 
ORIGINATOR     = 

OBJECT_NAME    = SHENZHOU-20 (SZ-20)
OBJECT_ID      = 2025-082A
CENTER_NAME    = EARTH
REF_FRAME      = TEME
TIME_SYSTEM    = UTC
MEAN_ELEMENT_THEORY = SGP/SGP4

EPOCH          = 2025-11-30T17:36:42.819552
MEAN_MOTION    = 15.58437522
ECCENTRICITY   = .00104909
INCLINATION    = 41.4667
RA_OF_ASC_NODE = 89.5523
ARG_OF_PERICENTER = 301.4921
MEAN_ANOMALY   = 58.4891

EPHEMERIS_TYPE = 0
CLASSIFICATION_TYPE = U
NORAD_CAT_ID   = 63632
ELEMENT_SET_NO = 999
REV_AT_EPOCH   = 25530
BSTAR          = .20844927E-3
MEAN_MOTION_DOT = .16075E-3
MEAN_MOTION_DDOT = 0

CCSDS_OMM_VERS = 2.0
CREATION_DATE  = 
ORIGINATOR     = 

OBJECT_NAME    = PROGRESS-MS 31
OBJECT_ID      = 2025-146A
CENTER_NAME    = EARTH
REF_FRAME      = TEME
TIME_SYSTEM    = UTC
MEAN_ELEMENT_THEORY = SGP/SGP4

EPOCH          = 2025-11-30T20:47:58.000128
MEAN_MOTION    = 15.49213294
ECCENTRICITY   = .00036702
INCLINATION    = 51.6312
RA_OF_ASC_NODE = 201.2569
ARG_OF_PERICENTER = 188.2523
MEAN_ANOMALY   = 171.8406

EPHEMERIS_TYPE = 0
CLASSIFICATION_TYPE = U
NORAD_CAT_ID   = 64751
ELEMENT_SET_NO = 999
REV_AT_EPOCH   = 675
BSTAR          = .16017013E-3
MEAN_MOTION_DOT = .845E-4
MEAN_MOTION_DDOT = 0

CCSDS_OMM_VERS = 2.0
CREATION_DATE  = 
ORIGINATOR     = 

OBJECT_NAME    = TIANZHOU-9
OBJECT_ID      = 2025-149A
CENTER_NAME    = EARTH
REF_FRAME      = TEME
TIME_SYSTEM    = UTC
MEAN_ELEMENT_THEORY = SGP/SGP4

EPOCH          = 2025-11-30T17:36:42.819552
MEAN_MOTION    = 15.58437522
ECCENTRICITY   = .00104909
INCLINATION    = 41.4667
RA_OF_ASC_NODE = 89.5523
ARG_OF_PERICENTER = 301.4921
MEAN_ANOMALY   = 58.4891

EPHEMERIS_TYPE = 0
CLASSIFICATION_TYPE = U
NORAD_CAT_ID   = 64786
ELEMENT_SET_NO = 999
REV_AT_EPOCH   = 25530
BSTAR          = .20844927E-3
MEAN_MOTION_DOT = .16075E-3
MEAN_MOTION_DDOT = 0

CCSDS_OMM_VERS = 2.0
CREATION_DATE  = 
ORIGINATOR     = 

OBJECT_NAME    = CREW DRAGON 11
OBJECT_ID      = 2025-166A
CENTER_NAME    = EARTH
REF_FRAME      = TEME
TIME_SYSTEM    = UTC
MEAN_ELEMENT_THEORY = SGP/SGP4

EPOCH          = 2025-11-30T20:47:58.000128
MEAN_MOTION    = 15.49213294
ECCENTRICITY   = .00036702
INCLINATION    = 51.6312
RA_OF_ASC_NODE = 201.2569
ARG_OF_PERICENTER = 188.2523
MEAN_ANOMALY   = 171.8406

EPHEMERIS_TYPE = 0
CLASSIFICATION_TYPE = U
NORAD_CAT_ID   = 65077
ELEMENT_SET_NO = 999
REV_AT_EPOCH   = 214
BSTAR          = .16017013E-3
MEAN_MOTION_DOT = .845E-4
MEAN_MOTION_DDOT = 0

CCSDS_OMM_VERS = 2.0
CREATION_DATE  = 
ORIGINATOR     = 

OBJECT_NAME    = DRAGON CRS-33
OBJECT_ID      = 2025-186A
CENTER_NAME    = EARTH
REF_FRAME      = TEME
TIME_SYSTEM    = UTC
MEAN_ELEMENT_THEORY = SGP/SGP4

EPOCH          = 2025-11-30T20:47:58.000128
MEAN_MOTION    = 15.49213294
ECCENTRICITY   = .00036702
INCLINATION    = 51.6312
RA_OF_ASC_NODE = 201.2569
ARG_OF_PERICENTER = 188.2523
MEAN_ANOMALY   = 171.8406

EPHEMERIS_TYPE = 0
CLASSIFICATION_TYPE = U
NORAD_CAT_ID   = 65304
ELEMENT_SET_NO = 999
REV_AT_EPOCH   = 11
BSTAR          = .16017013E-3
MEAN_MOTION_DOT = .845E-4
MEAN_MOTION_DDOT = 0

