ISS (ZARYA)             
1 25544U 98067A   25334.86664352  .00008450  00000+0  16017-3 0  9991
2 25544  51.6312 201.2569 0003670 188.2523 171.8406 15.49213294541018
CSS (TIANHE)            
1 48274U 21035A   25334.73382893  .00016075  00000+0  20845-3 0  9996
2 48274  41.4667  89.5523 0010490 301.4921  58.4891 15.58437522262154
ISS (NAUKA)             
1 49044U 21066A   25334.86664352  .00008450  00000+0  16017-3 0  9997
2 49044  51.6312 201.2569 0003670 188.2523 171.8406 15.49213294230441
FREGAT DEB              
1 49271U 11037PF  25334.10220946  .00006404  00000+0  14226-1 0  9995
2 49271  51.6202 236.7991 0869985 196.4494 160.6386 12.34314267200375
CSS (WENTIAN)           
1 53239U 22085A   25334.73382893  .00016075  00000+0  20845-3 0  9999
2 53239  41.4667  89.5523 0010490 301.4921  58.4891 15.58437522173848
CSS (MENGTIAN)          
1 54216U 22143A   25334.73382893  .00016075  00000+0  20845-3 0  9990
2 54216  41.4667  89.5523 0010490 301.4921  58.4891 15.58437522158645
SOYUZ-MS 27             
1 63520U 25072A   25334.86664352  .00008450  00000+0  16017-3 0  9993
2 63520  51.6312 201.2569 0003670 188.2523 171.8406 15.49213294 20207
SHENZHOU-20 (SZ-20)     
1 63632U 25082A   25334.73382893  .00016075  00000+0  20845-3 0  9997
2 63632  41.4667  89.5523 0010490 301.4921  58.4891 15.58437522255308
PROGRESS-MS 31          
1 64751U 25146A   25334.86664352  .00008450  00000+0  16017-3 0  9992
2 64751  51.6312 201.2569 0003670 188.2523 171.8406 15.49213294  6758
TIANZHOU-9              
1 64786U 25149A   25334.73382893  .00016075  00000+0  20845-3 0  9992
2 64786  41.4667  89.5523 0010490 301.4921  58.4891 15.58437522255309
CREW DRAGON 11          
1 65077U 25166A   25334.86664352  .00008450  00000+0  16017-3 0  9996
2 65077  51.6312 201.2569 0003670 188.2523 171.8406 15.49213294  2149
DRAGON CRS-33           
1 65304U 25186A   25334.86664352  .00008450  00000+0  16017-3 0  9991
2 65304  51.6312 201.2569 0003670 188.2523 171.8406 15.49213294   117
